STARLINK-32461          
1 61701U 24195Q   26068.50507758  .00000595  00000+0  32239-4 0  9996
2 61701  53.1612 156.1840 0001184  89.5143 270.5993 15.30188031 77159
JINJUSAT-1B             
1 63210U 25052A   26068.66363707  .00019955  00000+0  68430-3 0  9998
2 63210  97.4113 325.4613 0005550  82.1930 277.9941 15.30194857 54866
